IRIDIUM 119             
1 42959U 17061E   23361.67091079  .00000371  00000+0  12531-3 0  9993
2 42959  86.3964  42.4089 0002366  94.0227 266.1240 14.34216486325454
IRIDIUM 107             
1 42960U 17061F   23362.17831752  .00000378  00000+0  12805-3 0  9992
2 42960  86.3962  42.2125 0002272  86.3782 273.7673 14.34218427325540
IRIDIUM 132             
1 42961U 17061G   23362.18465750  .00000425  00000+0  14453-3 0  9999
2 42961  86.3958  42.1956 0002503  89.4557 270.6926 14.34217117325539
IRIDIUM 136             
1 42962U 17061H   23361.65822598  .00000230  00000+0  75074-4 0  9999
2 42962  86.3966  42.4184 0002427  97.7608 262.3863 14.34216626325474
IRIDIUM 139             
1 42963U 17061J   23362.50178956  .00000040  00000+0  71213-5 0  9998
2 42963  86.3964  42.1128 0002226  89.7643 270.3808 14.34216390325606
IRIDIUM 125             
1 42964U 17061K   23362.14026031  .00000428  00000+0  14582-3 0  9999
2 42964  86.3966  42.3086 0002544  91.5349 268.6138 14.34216765325568
IRIDIUM 135             
1 43070U 17083A   23362.46323071  .00000445  00000+0  15174-3 0  9998
2 43070  86.3974 338.8768 0001931  86.1538 273.9879 14.34218577314905
IRIDIUM 138             
1 43071U 17083B   23362.48859791  .00000484  00000+0  16562-3 0  9999
2 43071  86.3963 338.6053 0002462  86.5878 273.5599 14.34213774314897
